IRIDIUM 126             
1 42809U 17039G   23265.90068005  .00000512  00000+0  17573-3 0  9992
2 42809  86.3962  50.8227 0002295  90.1621 269.9838 14.34220152326864
IRIDIUM 124             
1 42810U 17039H   23265.75762352  .00000710  00000+0  20518-3 0  9996
2 42810  86.4548 347.6656 0002015  95.0057 265.1374 14.43288053331107
IRIDIUM 128             
1 42811U 17039J   23266.03095968  .00000051  00000+0  11197-4 0  9993
2 42811  86.3910  82.3152 0002141  84.9678 275.1762 14.34217605326910
IRIDIUM 121             
1 42812U 17039K   23265.84994252  .00000508  00000+0  17441-3 0  9990
2 42812  86.3960  50.8653 0002191  92.5487 267.5960 14.34220220326732
IRIDIUM 133             
1 42955U 17061A   23265.85336542  .00000065  00000+0  16057-4 0  9997
2 42955  86.3916  82.4833 0002330  87.5318 272.6145 14.34216781311681
IRIDIUM 100             
1 42956U 17061B   23265.91678934  .00000172  00000+0  54413-4 0  9996
2 42956  86.3912  82.3986 0002204  87.5737 272.5711 14.34217688311697
IRIDIUM 122             
1 42957U 17061C   23266.02461560  .00000114  00000+0  33797-4 0  9993
2 42957  86.3912  82.3512 0002205  84.0517 276.0930 14.34217885311716
IRIDIUM 129             
1 42958U 17061D   23265.91045508  .00000082  00000+0  22119-4 0  9991
2 42958  86.3914  82.4556 0002216  86.6564 273.4885 14.34217163311719
